HAWK-C                  
1 43799U 18099AT  26068.67261865  .00009431  00000+0  35663-3 0  9994
2 43799  97.4027 122.6817 0040363 277.4052  82.2601 15.26407167398720
STARLINK-35668          
1 66401U 25257X   26068.69798646  .00025287  00000+0  86320-3 0  9990
2 66401  53.1575 217.0580 0001000  83.9950 276.1164 15.30192020 19733
