[{"OBJECT_NAME":"HAWK-C","OBJECT_ID":"2018-099AT","EPOCH":"2026-03-09T16:08:34.251360","MEAN_MOTION":15.26407167,"ECCENTRICITY":0.00403625,"INCLINATION":97.4027,"RA_OF_ASC_NODE":122.6817,"ARG_OF_PERICENTER":277.4052,"MEAN_ANOMALY":82.2601,"EPHEMERIS_TYPE":0,"CLASSIFICATION_TYPE":"U","NORAD_CAT_ID":43799,"ELEMENT_SET_NO":999,"REV_AT_EPOCH":39872,"BSTAR":0.00035662773,"MEAN_MOTION_DOT":9.431e-5,"MEAN_MOTION_DDOT":0},{"OBJECT_NAME":"STARLINK-35668","OBJECT_ID":"2025-257X","EPOCH":"2026-03-09T16:45:06.030144","MEAN_MOTION":15.3019202,"ECCENTRICITY":0.00010004,"INCLINATION":53.1575,"RA_OF_ASC_NODE":217.058,"ARG_OF_PERICENTER":83.995,"MEAN_ANOMALY":276.1164,"EPHEMERIS_TYPE":0,"CLASSIFICATION_TYPE":"U","NORAD_CAT_ID":66401,"ELEMENT_SET_NO":999,"REV_AT_EPOCH":1973,"BSTAR":0.00086319725,"MEAN_MOTION_DOT":0.00025287,"MEAN_MOTION_DDOT":0}]
